$$SOE
2461302.500000000, A.D. 2026-Sep-19 00:00:00.0000, -6.409316418216843E+07, -3.310791102976106E+08, 1.575215049817069E+07,
2461309.500000000, A.D. 2026-Sep-26 00:00:00.0000, -5.139019274550697E+07, -3.295042524666789E+08, 1.162746362689191E+07,
2461316.500000000, A.D. 2026-Oct-03 00:00:00.0000, -3.862016642768095E+07, -3.274989373307099E+08, 7.487616993640557E+06,
2461323.500000000, A.D. 2026-Oct-10 00:00:00.0000, -2.579799213692273E+07, -3.250506905345522E+08, 3.337675110975996E+06,
2461330.500000000, A.D. 2026-Oct-17 00:00:00.0000, -1.293979456064898E+07, -3.221474382737314E+08, -8.169059030185491E+05,
2461337.500000000, A.D. 2026-Oct-24 00:00:00.0000, -6.294945879563099E+04, -3.187776320325388E+08, -4.970269425689861E+06,
2461344.500000000, A.D. 2026-Oct-31 00:00:00.0000, 1.281389346408397E+07, -3.149303856966467E+08, -9.116153019022912E+06,
2461351.500000000, A.D. 2026-Nov-07 00:00:00.0000, 2.567080080429370E+07, -3.105956245127675E+08, -1.324788749479169E+07,
2461358.500000000, A.D. 2026-Nov-14 00:00:00.0000, 3.848656152459312E+07, -3.057642441098002E+08, -1.735840110490841E+07,
2461365.500000000, A.D. 2026-Nov-21 00:00:00.0000, 5.123870960891882E+07, -3.004282774803290E+08, -2.144022945627995E+07,
2461372.500000000, A.D. 2026-Nov-28 00:00:00.0000, 6.390356487999829E+07, -2.945810709206771E+08, -2.548553211304131E+07,
2461379.500000000, A.D. 2026-Dec-05 00:00:00.0000, 7.645629805009103E+07, -2.882174669360177E+08, -2.948611702977841E+07,
2461386.500000000, A.D. 2026-Dec-12 00:00:00.0000, 8.887102235943933E+07, -2.813339876808658E+08, -3.343347323892125E+07,
2461393.500000000, A.D. 2026-Dec-19 00:00:00.0000, 1.011209116845337E+08, -2.739290149356189E+08, -3.731881213376787E+07,
2461400.500000000, A.D. 2026-Dec-26 00:00:00.0000, 1.131783461519296E+08, -2.660029628588080E+08, -4.113311771720025E+07,
2461407.500000000, A.D. 2027-Jan-02 00:00:00.0000, 1.250150859431357E+08, -2.575584385330169E+08, -4.486720590981312E+07,
2461414.500000000, A.D. 2027-Jan-09 00:00:00.0000, 1.366024728778588E+08, -2.486003847110784E+08, -4.851179266677621E+07,
2461421.500000000, A.D. 2027-Jan-16 00:00:00.0000, 1.479116581944774E+08, -2.391361989787981E+08, -5.205757028843933E+07,
2461428.500000000, A.D. 2027-Jan-23 00:00:00.0000, 1.589138537679015E+08, -2.291758236488938E+08, -5.549529092596382E+07,
2461435.500000000, A.D. 2027-Jan-30 00:00:00.0000, 1.695806029170433E+08, -2.187318010614810E+08, -5.881585589931606E+07,
2461442.500000000, A.D. 2027-Feb-06 00:00:00.0000, 1.798840659888948E+08, -2.078192892647403E+08, -6.201040905412079E+07,
2461449.500000000, A.D. 2027-Feb-13 00:00:00.0000, 1.897973139266019E+08, -1.964560331834291E+08, -6.507043189165032E+07,
2461456.500000000, A.D. 2027-Feb-20 00:00:00.0000, 1.992946202345278E+08, -1.846622897049762E+08, -6.798783792577460E+07,
2461463.500000000, A.D. 2027-Feb-27 00:00:00.0000, 2.083517449180656E+08, -1.724607090979287E+08, -7.075506409155688E+07,
2461470.500000000, A.D. 2027-Mar-06 00:00:00.0000, 2.169462053721827E+08, -1.598761717843200E+08, -7.336515671139783E+07,
2461477.500000000, A.D. 2027-Mar-13 00:00:00.0000, 2.250575247561771E+08, -1.469355811761912E+08, -7.581184917934898E+07,
2461484.500000000, A.D. 2027-Mar-20 00:00:00.0000, 2.326674494646403E+08, -1.336676179276315E+08, -7.808962902789059E+07,
2461491.500000000, A.D. 2027-Mar-27 00:00:00.0000, 2.397601296419861E+08, -1.201024622448243E+08, -8.019379249351406E+07,
2461498.500000000, A.D. 2027-Apr-03 00:00:00.0000, 2.463222580433873E+08, -1.062714916817066E+08, -8.212048511924018E+07,
2461505.500000000, A.D. 2027-Apr-10 00:00:00.0000, 2.523431640178321E+08, -9.220696268307462E+07, -8.386672745541880E+07,
2461512.500000000, A.D. 2027-Apr-17 00:00:00.0000, 2.578148611130676E+08, -7.794168463987413E+07, -8.543042550378597E+07,
2461519.500000000, A.D. 2027-Apr-24 00:00:00.0000, 2.627320486472130E+08, -6.350869527535920E+07, -8.681036614370833E+07,
2461526.500000000, A.D. 2027-May-01 00:00:00.0000, 2.670920695034065E+08, -4.894094565196111E+07, -8.800619833626953E+07,
2461533.500000000, A.D. 2027-May-08 00:00:00.0000, 2.708948279117602E+08, -3.427100153498917E+07, -8.901840131752945E+07,
2461540.500000000, A.D. 2027-May-15 00:00:00.0000, 2.741426704116374E+08, -1.953076651361407E+07, -8.984824119519854E+07,
2461547.500000000, A.D. 2027-May-22 00:00:00.0000, 2.768402340067819E+08, -4.751234491760850E+06, -9.049771791348526E+07,
2461554.500000000, A.D. 2027-May-29 00:00:00.0000, 2.789942709718668E+08, 1.003772341949576E+07, -9.096950505504741E+07,
2461561.500000000, A.D. 2027-Jun-05 00:00:00.0000, 2.806134575058057E+08, 2.480753864018375E+07, -9.126688439566092E+07,
2461568.500000000, A.D. 2027-Jun-12 00:00:00.0000, 2.817081904410080E+08, 3.953109118473169E+07, -9.139367703954317E+07,
2461575.500000000, A.D. 2027-Jun-19 00:00:00.0000, 2.822903775285466E+08, 5.418282158366203E+07, -9.135417309350827E+07,
2461582.500000000, A.D. 2027-Jun-26 00:00:00.0000, 2.823732268568439E+08, 6.873880988694285E+07, -9.115306163285668E+07,
2461589.500000000, A.D. 2027-Jul-03 00:00:00.0000, 2.819710401060149E+08, 8.317682404672670E+07, -9.079536242786723E+07,
2461596.500000000, A.D. 2027-Jul-10 00:00:00.0000, 2.810990134657783E+08, 9.747634056302847E+07, -9.028636062482867E+07,
2461603.500000000, A.D. 2027-Jul-17 00:00:00.0000, 2.797730492486100E+08, 1.116185406015348E+08, -8.963154531332627E+07,
2461610.500000000, A.D. 2027-Jul-24 00:00:00.0000, 2.780095805801206E+08, 1.255862849500054E+08, -8.883655267105806E+07,
2461617.500000000, A.D. 2027-Jul-31 00:00:00.0000, 2.758254110896574E+08, 1.393640714942771E+08, -8.790711414331822E+07,
2461624.500000000, A.D. 2027-Aug-07 00:00:00.0000, 2.732375702699009E+08, 1.529379796988249E+08, -8.684900977406208E+07,
2461631.500000000, A.D. 2027-Aug-14 00:00:00.0000, 2.702631825289264E+08, 1.662956049754068E+08, -8.566802655438596E+07,
2461638.500000000, A.D. 2027-Aug-21 00:00:00.0000, 2.669193504442481E+08, 1.794259824416200E+08, -8.436992204240564E+07,
2461645.500000000, A.D. 2027-Aug-28 00:00:00.0000, 2.632230551824642E+08, 1.923195038139404E+08, -8.296039327847354E+07,
2461652.500000000, A.D. 2027-Sep-04 00:00:00.0000, 2.591910721590629E+08, 2.049678321510994E+08, -8.144505040393069E+07,
2461659.500000000, A.D. 2027-Sep-11 00:00:00.0000, 2.548398996129364E+08, 2.173638156746038E+08, -7.982939457628727E+07,
2461666.500000000, A.D. 2027-Sep-18 00:00:00.0000, 2.501856991796811E+08, 2.295014015869175E+08, -7.811879987954231E+07,
2461673.500000000, A.D. 2027-Sep-25 00:00:00.0000, 2.452442475781749E+08, 2.413755510843330E+08, -7.631849887355869E+07,
2461680.500000000, A.D. 2027-Oct-02 00:00:00.0000, 2.400308983508144E+08, 2.529821565986561E+08, -7.443357140118355E+07,
2461687.500000000, A.D. 2027-Oct-09 00:00:00.0000, 2.345605525602275E+08, 2.643179620322527E+08, -7.246893627815506E+07,
2461694.500000000, A.D. 2027-Oct-16 00:00:00.0000, 2.288476374273688E+08, 2.753804864945281E+08, -7.042934551535061E+07,
2461701.500000000, A.D. 2027-Oct-23 00:00:00.0000, 2.229060921529879E+08, 2.861679519217624E+08, -6.831938075935113E+07,
2461708.500000000, A.D. 2027-Oct-30 00:00:00.0000, 2.167493603526503E+08, 2.966792154303774E+08, -6.614345162333900E+07,
2461715.500000000, A.D. 2027-Nov-06 00:00:00.0000, 2.103903870744397E+08, 3.069137076458772E+08, -6.390579542281672E+07,
2461722.500000000, A.D. 2027-Nov-13 00:00:00.0000, 2.038416176216305E+08, 3.168713749491756E+08, -6.161047804353332E+07,
2461729.500000000, A.D. 2027-Nov-20 00:00:00.0000, 1.971150003759294E+08, 3.265526234046076E+08, -5.926139615741825E+07,
2461736.500000000, A.D. 2027-Nov-27 00:00:00.0000, 1.902219946153747E+08, 3.359582672204764E+08, -5.686228049061109E+07,
2461743.500000000, A.D. 2027-Dec-04 00:00:00.0000, 1.831735807486703E+08, 3.450894824957110E+08, -5.441669970445728E+07,
2461750.500000000, A.D. 2027-Dec-11 00:00:00.0000, 1.759802719299574E+08, 3.539477651016158E+08, -5.192806476323584E+07,
2461757.500000000, A.D. 2027-Dec-18 00:00:00.0000, 1.686521269101508E+08, 3.625348921541368E+08, -4.939963370933324E+07,
2461764.500000000, A.D. 2027-Dec-25 00:00:00.0000, 1.611987639179626E+08, 3.708528868569226E+08, -4.683451674706589E+07,
2461771.500000000, A.D. 2028-Jan-01 00:00:00.0000, 1.536293753064423E+08, 3.789039865060592E+08, -4.423568154165316E+07,
$$EOE